*******************************************************************************
USER DATA                   {Unspecified by user}           Tue Dec-24 07:45:43
Local ID: -827386              (TLE ID = 27386)
 
Geocentric SGP4/SDP4 Two-Line Elements (TLEs):
 
1 27386U 02009A   24349.14527266  .00000279  00000-0  10442-3 0  9994
2 27386  98.3093 304.2287 0001183  81.9055 288.6771 14.38786105194452
1 27386U 02009A   24349.38510311  .00000291  00000-0  10844-3 0  9993
2 27386  98.3094 304.4610 0001185  81.8649  90.2301 14.38786346194414
1 27386U 02009A   24349.38510311  .00000291  00000-0  10844-3 0  9993
2 27386  98.3094 304.4610 0001185  81.8649  90.2301 14.38786346194481
1 27386U 02009A   24349.84499677  .00000303  00000-0  11244-3 0  9994
2 27386  98.3094 304.9064 0001184  81.7941 310.9991 14.38786744194481
1 27386U 02009A   24349.84499677  .00000303  00000-0  11244-3 0  9994
2 27386  98.3094 304.9064 0001184  81.7941 310.9991 14.38786744194559
1 27386U 02009A   24350.11883184  .00000320  00000-0  11803-3 0  9996
2 27386  98.3095 305.1716 0001190  82.1235 288.2125 14.38787038194592
1 27386U 02009A   24350.35506861  .00000331  00000-0  12133-3 0  9995
2 27386  98.3096 305.4004 0001194  82.0952  71.1511 14.38787276194621
1 27386U 02009A   24350.63706095  .00000316  00000-0  11659-3 0  9992
2 27386  98.3096 305.6735 0001195  82.0336  90.9824 14.38787363194590
1 27386U 02009A   24350.88610161  .00000320  00000-0  11798-3 0  9996
2 27386  98.3096 305.9146 0001187  82.0938 300.1137 14.38787585194632
1 27386U 02009A   24350.88610161  .00000320  00000-0  11798-3 0  9996
2 27386  98.3096 305.9146 0001187  82.0938 300.1137 14.38787585194700
1 27386U 02009A   24351.16205162  .00000325  00000-0  11964-3 0  9999
2 27386  98.3097 306.1819 0001194  82.1157 288.5833 14.38787800194749
1 27386U 02009A   24351.39844708  .00000315  00000-0  11611-3 0  9997
2 27386  98.3097 306.4108 0001191  82.1081  72.3228 14.38787900194700
1 27386U 02009A   24351.39844708  .00000315  00000-0  11611-3 0  9997
2 27386  98.3097 306.4108 0001191  82.1081  72.3228 14.38787900194777
1 27386U 02009A   24351.86012917  .00000333  00000-0  12222-3 0  9997
2 27386  98.3098 306.8580 0001180  82.2105 302.1790 14.38788315194771
1 27386U 02009A   24351.86012917  .00000333  00000-0  12222-3 0  9997
2 27386  98.3098 306.8580 0001180  82.2105 302.1790 14.38788315194849
1 27386U 02009A   24352.13561874  .00000329  00000-0  12096-3 0  9993
2 27386  98.3099 307.1248 0001178  82.2510 288.2469 14.38788462194886
1 27386U 02009A   24352.50303947  .00000321  00000-0  11825-3 0  9990
2 27386  98.3099 307.4806 0001178  82.1667  30.3341 14.38788683194869
1 27386U 02009A   24352.50303947  .00000321  00000-0  11825-3 0  9990
2 27386  98.3099 307.4806 0001178  82.1667  30.3341 14.38788683194937
1 27386U 02009A   24352.90111689  .00000345  00000-0  12612-3 0  9995
2 27386  98.3100 307.8661 0001165  82.2890 290.9138 14.38789112194923
1 27386U 02009A   24352.90111689  .00000345  00000-0  12612-3 0  9995
2 27386  98.3100 307.8661 0001165  82.2890 290.9138 14.38789112194990
1 27386U 02009A   24353.17888341  .00000362  00000-0  13149-3 0  9996
2 27386  98.3100 308.1352 0001169  82.4145 288.6845 14.38789376195037
1 27386U 02009A   24353.41738380  .00000344  00000-0  12574-3 0  9991
2 27386  98.3101 308.3661 0001165  82.4329  83.2958 14.38789444194997
1 27386U 02009A   24353.74545126  .00000324  00000-0  11931-3 0  9995
2 27386  98.3101 308.6839 0001162  82.6137 341.4012 14.38789543195118
1 27386U 02009A   24354.15239963  .00000345  00000-0  12612-3 0  9990
2 27386  98.3102 309.0780 0001162  82.7349 287.9047 14.38789955195170
1 27386U 02009A   24354.32266477  .00000313  00000-0  11566-3 0  9991
2 27386  98.3103 309.2429 0001161  82.7795  89.2612 14.38789917195121
1 27386U 02009A   24354.52026668  .00000313  00000-0  11570-3 0  9994
2 27386  98.3103 309.4343 0001163  82.6284  32.3263 14.38790055195151
1 27386U 02009A   24354.52026668  .00000313  00000-0  11570-3 0  9994
2 27386  98.3103 309.4343 0001163  82.6284  32.3263 14.38790055195229
1 27386U 02009A   24354.84989743  .00000293  00000-0  10917-3 0  9992
2 27386  98.3103 309.7536 0001156  82.7717 298.5626 14.38790167195201
1 27386U 02009A   24354.84989743  .00000293  00000-0  10917-3 0  9992
2 27386  98.3103 309.7536 0001156  82.7717 298.5626 14.38790167195278
1 27386U 02009A   24354.92837733  .00000298  00000-0  11069-3 0  9996
2 27386  98.3103 309.8296 0001156  82.7333 344.8633 14.38790254195287
1 27386U 02009A   24355.42354863  .00000307  00000-0  11374-3 0  9990
2 27386  98.3104 310.3092 0001157  82.7638  28.1576 14.38790681195358
1 27386U 02009A   24355.64413000  .00000290  00000-0  10824-3 0  9993
2 27386  98.3105 310.5228 0001157  82.7615  90.0306 14.38790713195318
1 27386U 02009A   24355.89281824  .00000290  00000-0  10817-3 0  9999
2 27386  98.3105 310.7637 0001150  82.8086 297.3538 14.38790910195352
1 27386U 02009A   24355.89281824  .00000290  00000-0  10817-3 0  9999
2 27386  98.3105 310.7637 0001150  82.8086 297.3538 14.38790910195420
1 27386U 02009A   24356.40818734  .00000308  00000-0  11384-3 0  9993
2 27386  98.3105 311.2628 0001150  82.9407  85.1046 14.38791406195499
1 27386U 02009A   24356.46665045  .00000323  00000-0  11893-3 0  9996
2 27386  98.3105 311.3195 0001151  82.9223  27.7659 14.38791531195431
1 27386U 02009A   24356.86830491  .00000322  00000-0  11859-3 0  9990
2 27386  98.3105 311.7085 0001143  83.0689 306.8422 14.38791829195497
1 27386U 02009A   24356.86830491  .00000322  00000-0  11859-3 0  9990
2 27386  98.3105 311.7085 0001143  83.0689 306.8422 14.38791829195565
1 27386U 02009A   24357.50992786  .00000332  00000-0  12188-3 0  9995
2 27386  98.3106 312.3299 0001138  83.2448  28.1225 14.38792387195586
1 27386U 02009A   24357.50992786  .00000332  00000-0  12188-3 0  9995
2 27386  98.3106 312.3299 0001138  83.2448  28.1225 14.38792387195654
1 27386U 02009A   24357.91886311  .00000367  00000-0  13309-3 0  9990
2 27386  98.3106 312.7260 0001128  83.3985 344.8837 14.38792925195646
1 27386U 02009A   24357.91886311  .00000367  00000-0  13309-3 0  9990
2 27386  98.3106 312.7260 0001128  83.3985 344.8837 14.38792925195714
1 27386U 02009A   24358.41428212  .00000379  00000-0  13692-3 0  9996
2 27386  98.3107 313.2059 0001125  83.6552  29.2385 14.38793399195715
1 27386U 02009A   24358.41428212  .00000379  00000-0  13692-3 0  9996
2 27386  98.3107 313.2059 0001125  83.6552  29.2385 14.38793399195782
1 27386U 02009A   24358.88076201  .00000351  00000-0  12784-3 0  9995
2 27386  98.3107 313.6577 0001125  83.5893 284.1081 14.38793597195851
